{"type": "FeatureCollection", "features": [ {"type": "Feature", "properties": {"norad_id": 39620, "name": "COSMOS 2492 (754)", "group": "gnss", "lat": 32.47614385558175, "lon": 123.16766942937035, "alt_km": 19161.859540223188, "timestamp": "2025-12-16T23:36:36.438780+00:00", "meta": {"OBJECT_NAME": "COSMOS 2492 (754)", "OBJECT_ID": "2014-012A", "EPOCH": "2025-12-16T07:50:46.447872", "MEAN_MOTION": 2.13103282, "ECCENTRICITY": 0.0014254, "INCLINATION": 65.4058, "RA_OF_ASC_NODE": 320.149, "ARG_OF_PERICENTER": 313.159, "MEAN_ANOMALY": 46.7158, "EPHEMERIS_TYPE": 0, "CLASSIFICATION_TYPE": "U", "NORAD_CAT_ID": 39620, "ELEMENT_SET_NO": 999, "REV_AT_EPOCH": 9134, "BSTAR": 0, "MEAN_MOTION_DOT": -6.8e-07, "MEAN_MOTION_DDOT": 0}, "tle": {"line1": "1 39620U 14012A   25350.32692648 -.00000068  00000+0  00000+0 0  9996", "line2": "2 39620  65.4058 320.1490 0014254 313.1590  46.7158  2.13103282 91347"}}, "geometry": {"type": "Point", "coordinates": [123.16766942937035, 32.47614385558175]}}, {"type": "Feature", "properties": {"norad_id": 39635, "name": "IRNSS-1B", "group": "gnss", "lat": -27.7029780660291, "lon": 133.3005082134107, "alt_km": 35716.205165006046, "timestamp": "2025-12-16T23:36:36.438792+00:00", "meta": {"OBJECT_NAME": "IRNSS-1B", "OBJECT_ID": "2014-017A", "EPOCH": "2025-12-11T18:54:44.030304", "MEAN_MOTION": 1.00285038, "ECCENTRICITY": 0.00181492, "INCLINATION": 29.2271, "RA_OF_ASC_NODE": 243.6214, "ARG_OF_PERICENTER": 227.0185, "MEAN_ANOMALY": 309.1991, "EPHEMERIS_TYPE": 0, "CLASSIFICATION_TYPE": "U", "NORAD_CAT_ID": 39635, "ELEMENT_SET_NO": 999, "REV_AT_EPOCH": 4291, "BSTAR": 0, "MEAN_MOTION_DOT": 1.07e-06, "MEAN_MOTION_DDOT": 0}, "tle": {"line1": "1 39635U 14017A   25345.78800961  .00000107  00000+0  00000+0 0  9993", "line2": "2 39635  29.2271 243.6214 0018149 227.0185 309.1991  1.00285038 42916"}}, "geometry": {"type": "Point", "coordinates": [133.3005082134107, -27.7029780660291]}}, {"type": "Feature", "properties": {"norad_id": 39727, "name": "LUCH 5V (SDCM/PRN 141)", "group": "gnss", "lat": 4.554586625740021, "lon": 174.70608746496455, "alt_km": 35791.759455050276, "timestamp": "2025-12-16T23:36:36.438805+00:00", "meta": {"OBJECT_NAME": "LUCH 5V (SDCM/PRN 141)", "OBJECT_ID": "2014-023A", "EPOCH": "2025-12-16T03:32:04.301664", "MEAN_MOTION": 1.00268247, "ECCENTRICITY": 0.00043755, "INCLINATION": 4.6779, "RA_OF_ASC_NODE": 71.5073, "ARG_OF_PERICENTER": 209.6334, "MEAN_ANOMALY": 311.6279, "EPHEMERIS_TYPE": 0, "CLASSIFICATION_TYPE": "U", "NORAD_CAT_ID": 39727, "ELEMENT_SET_NO": 999, "REV_AT_EPOCH": 4252, "BSTAR": 0, "MEAN_MOTION_DOT": -2.48e-06, "MEAN_MOTION_DDOT": 0}, "tle": {"line1": "1 39727U 14023A   25350.14727201 -.00000248  00000+0  00000+0 0  9990", "line2": "2 39727   4.6779  71.5073 0004375 209.6334 311.6279  1.00268247 42524"}}, "geometry": {"type": "Point", "coordinates": [174.70608746496455, 4.554586625740021]}}, {"type": "Feature", "properties": {"norad_id": 39741, "name": "GPS BIIF-6  (PRN 06)", "group": "gnss", "lat": 1.5675160415958593, "lon": -20.361149328330654, "alt_km": 20106.24446559946, "timestamp": "2025-12-16T23:36:36.438816+00:00", "meta": {"OBJECT_NAME": "GPS BIIF-6  (PRN 06)", "OBJECT_ID": "2014-026A", "EPOCH": "2025-12-15T23:36:56.796480", "MEAN_MOTION": 2.00561228, "ECCENTRICITY": 0.00392671, "INCLINATION": 56.5823, "RA_OF_ASC_NODE": 338.6501, "ARG_OF_PERICENTER": 318.8752, "MEAN_ANOMALY": 40.8399, "EPHEMERIS_TYPE": 0, "CLASSIFICATION_TYPE": "U", "NORAD_CAT_ID": 39741, "ELEMENT_SET_NO": 999, "REV_AT_EPOCH": 8486, "BSTAR": 0, "MEAN_MOTION_DOT": -8.7e-07, "MEAN_MOTION_DDOT": 0}, "tle": {"line1": "1 39741U 14026A   25349.98399070 -.00000087  00000+0  00000+0 0  9999", "line2": "2 39741  56.5823 338.6501 0039267 318.8752  40.8399  2.00561228 84867"}}, "geometry": {"type": "Point", "coordinates": [-20.361149328330654, 1.5675160415958593]}}, {"type": "Feature", "properties": {"norad_id": 40001, "name": "COSMOS 2500 (755)", "group": "gnss", "lat": 10.725176184668417, "lon": -35.13543005549846, "alt_km": 19147.05045211596, "timestamp": "2025-12-16T23:36:36.438828+00:00", "meta": {"OBJECT_NAME": "COSMOS 2500 (755)", "OBJECT_ID": "2014-032A", "EPOCH": "2025-12-16T00:42:57.084768", "MEAN_MOTION": 2.13105999, "ECCENTRICITY": 0.00081036, "INCLINATION": 65.3412, "RA_OF_ASC_NODE": 319.9203, "ARG_OF_PERICENTER": 219.1149, "MEAN_ANOMALY": 140.8212, "EPHEMERIS_TYPE": 0, "CLASSIFICATION_TYPE": "U", "NORAD_CAT_ID": 40001, "ELEMENT_SET_NO": 999, "REV_AT_EPOCH": 8955, "BSTAR": 0, "MEAN_MOTION_DOT": -6.8e-07, "MEAN_MOTION_DDOT": 0}, "tle": {"line1": "1 40001U 14032A   25350.02982737 -.00000068  00000+0  00000+0 0  9991", "line2": "2 40001  65.3412 319.9203 0008103 219.1149 140.8212  2.13105999 89558"}}, "geometry": {"type": "Point", "coordinates": [-35.13543005549846, 10.725176184668417]}}, {"type": "Feature", "properties": {"norad_id": 40105, "name": "GPS BIIF-7  (PRN 09)", "group": "gnss", "lat": -45.81932049883049, "lon": 50.16801974249089, "alt_km": 20273.44237022932, "timestamp": "2025-12-16T23:36:36.438839+00:00", "meta": {"OBJECT_NAME": "GPS BIIF-7  (PRN 09)", "OBJECT_ID": "2014-045A", "EPOCH": "2025-12-12T01:59:18.865536", "MEAN_MOTION": 2.00572516, "ECCENTRICITY": 0.00326941, "INCLINATION": 55.2287, "RA_OF_ASC_NODE": 95.9251, "ARG_OF_PERICENTER": 119.8618, "MEAN_ANOMALY": 240.4523, "EPHEMERIS_TYPE": 0, "CLASSIFICATION_TYPE": "U", "NORAD_CAT_ID": 40105, "ELEMENT_SET_NO": 999, "REV_AT_EPOCH": 8232, "BSTAR": 0, "MEAN_MOTION_DOT": -9e-08, "MEAN_MOTION_DDOT": 0}, "tle": {"line1": "1 40105U 14045A   25346.08285724 -.00000009  00000+0  00000+0 0  9998", "line2": "2 40105  55.2287  95.9251 0032694 119.8618 240.4523  2.00572516 82323"}}, "geometry": {"type": "Point", "coordinates": [50.16801974249089, -45.81932049883049]}}, {"type": "Feature", "properties": {"norad_id": 40128, "name": "GSAT0201 (GALILEO 5)", "group": "gnss", "lat": -14.844199966349834, "lon": 114.14630641789766, "alt_km": 17361.710215869163, "timestamp": "2025-12-16T23:36:36.438852+00:00", "meta": {"OBJECT_NAME": "GSAT0201 (GALILEO 5)", "OBJECT_ID": "2014-050A", "EPOCH": "2025-12-14T00:08:14.916480", "MEAN_MOTION": 1.85519648, "ECCENTRICITY": 0.16480052, "INCLINATION": 49.0753, "RA_OF_ASC_NODE": 281.012, "ARG_OF_PERICENTER": 172.3262, "MEAN_ANOMALY": 190.5827, "EPHEMERIS_TYPE": 0, "CLASSIFICATION_TYPE": "U", "NORAD_CAT_ID": 40128, "ELEMENT_SET_NO": 999, "REV_AT_EPOCH": 7488, "BSTAR": 0, "MEAN_MOTION_DOT": -9.9e-07, "MEAN_MOTION_DDOT": 0}, "tle": {"line1": "1 40128U 14050A   25348.00572820 -.00000099  00000+0  00000+0 0  9998", "line2": "2 40128  49.0753 281.0120 1648005 172.3262 190.5827  1.85519648 74882"}}, "geometry": {"type": "Point", "coordinates": [114.14630641789766, -14.844199966349834]}}, {"type": "Feature", "properties": {"norad_id": 40129, "name": "GSAT0202 (GALILEO 6)", "group": "gnss", "lat": 9.929084317726533, "lon": -71.32604630669037, "alt_km": 25829.94444899411, "timestamp": "2025-12-16T23:36:36.438866+00:00", "meta": {"OBJECT_NAME": "GSAT0202 (GALILEO 6)", "OBJECT_ID": "2014-050B", "EPOCH": "2025-12-14T06:17:14.023104", "MEAN_MOTION": 1.85520414, "ECCENTRICITY": 0.16487132, "INCLINATION": 49.0906, "RA_OF_ASC_NODE": 280.0852, "ARG_OF_PERICENTER": 173.0839, "MEAN_ANOMALY": 189.5459, "EPHEMERIS_TYPE": 0, "CLASSIFICATION_TYPE": "U", "NORAD_CAT_ID": 40129, "ELEMENT_SET_NO": 999, "REV_AT_EPOCH": 7705, "BSTAR": 0, "MEAN_MOTION_DOT": -9.7e-07, "MEAN_MOTION_DDOT": 0}, "tle": {"line1": "1 40129U 14050B   25348.26196786 -.00000097  00000+0  00000+0 0  9998", "line2": "2 40129  49.0906 280.0852 1648713 173.0839 189.5459  1.85520414 77052"}}, "geometry": {"type": "Point", "coordinates": [-71.32604630669037, 9.929084317726533]}}, {"type": "Feature", "properties": {"norad_id": 40269, "name": "IRNSS-1C", "group": "gnss", "lat": 5.712600560378633, "lon": 163.0671564254957, "alt_km": 35757.08160977037, "timestamp": "2025-12-16T23:36:36.438878+00:00", "meta": {"OBJECT_NAME": "IRNSS-1C", "OBJECT_ID": "2014-061A", "EPOCH": "2025-12-15T21:11:51.423648", "MEAN_MOTION": 1.00274689, "ECCENTRICITY": 0.00181129, "INCLINATION": 6.0492, "RA_OF_ASC_NODE": 92.5594, "ARG_OF_PERICENTER": 1.6311, "MEAN_ANOMALY": 31.5004, "EPHEMERIS_TYPE": 0, "CLASSIFICATION_TYPE": "U", "NORAD_CAT_ID": 40269, "ELEMENT_SET_NO": 999, "REV_AT_EPOCH": 4085, "BSTAR": 0, "MEAN_MOTION_DOT": -1.43e-06, "MEAN_MOTION_DDOT": 0}, "tle": {"line1": "1 40269U 14061A   25349.88323407 -.00000143  00000+0  00000+0 0  9998", "line2": "2 40269   6.0492  92.5594 0018112   1.6311  31.5004  1.00274689 40850"}}, "geometry": {"type": "Point", "coordinates": [163.0671564254957, 5.712600560378633]}}, {"type": "Feature", "properties": {"norad_id": 40294, "name": "GPS BIIF-8  (PRN 03)", "group": "gnss", "lat": 22.419777034408845, "lon": 53.623553571851346, "alt_km": 20058.771631117947, "timestamp": "2025-12-16T23:36:36.438890+00:00", "meta": {"OBJECT_NAME": "GPS BIIF-8  (PRN 03)", "OBJECT_ID": "2014-068A", "EPOCH": "2025-12-15T10:49:04.415520", "MEAN_MOTION": 2.0056507, "ECCENTRICITY": 0.00607763, "INCLINATION": 56.8599, "RA_OF_ASC_NODE": 38.0411, "ARG_OF_PERICENTER": 69.1257, "MEAN_ANOMALY": 291.5793, "EPHEMERIS_TYPE": 0, "CLASSIFICATION_TYPE": "U", "NORAD_CAT_ID": 40294, "ELEMENT_SET_NO": 999, "REV_AT_EPOCH": 8152, "BSTAR": 0, "MEAN_MOTION_DOT": -8.8e-07, "MEAN_MOTION_DDOT": 0}, "tle": {"line1": "1 40294U 14068A   25349.45074555 -.00000088  00000+0  00000+0 0  9991", "line2": "2 40294  56.8599  38.0411 0060776  69.1257 291.5793  2.00565070 81523"}}, "geometry": {"type": "Point", "coordinates": [53.623553571851346, 22.419777034408845]}}]}